STARLINK-31916          
1 59795U 24093P   26068.41689169  .00000055  00000+0  11522-4 0  9993
2 59795  43.0034 210.4390 0001198 249.4006 110.6718 15.27560366102653
KUIPER-00209            
1 67776U 26030N   26068.61786546  .00035298  00000+0  11963-2 0  9997
2 67776  51.8838 220.0775 0012191  59.1967 301.0215 15.30161950  5077
